{
    "links": {
        "self": "http://www.neowsapp.com/rest/v1/neo/54054539?api_key=iIulBulltgU6a56xZRHN4H3l9WmuAYTsLGpBGhQ2"
    },
    "id": "54054539",
    "neo_reference_id": "54054539",
    "name": "(2020 QX7)",
    "designation": "2020 QX7",
    "nasa_jpl_url": "http://ssd.jpl.nasa.gov/sbdb.cgi?sstr=54054539",
    "absolute_magnitude_h": 24.903,
    "estimated_diameter": {
        "kilometers": {
            "estimated_diameter_min": 0.0277942511,
            "estimated_diameter_max": 0.0621498348
        },
        "meters": {
            "estimated_diameter_min": 27.7942510928,
            "estimated_diameter_max": 62.1498348272
        },
        "miles": {
            "estimated_diameter_min": 0.0172705416,
            "estimated_diameter_max": 0.038618105
        },
        "feet": {
            "estimated_diameter_min": 91.1884907554,
            "estimated_diameter_max": 203.9036640946
        }
    },
    "is_potentially_hazardous_asteroid": false,
    "close_approach_data": [
        {
            "close_approach_date": "2020-08-31",
            "close_approach_date_full": "2020-Aug-31 01:27",
            "epoch_date_close_approach": 1598837220000,
            "relative_velocity": {
                "kilometers_per_second": "8.138709553",
                "kilometers_per_hour": "29299.3543908028",
                "miles_per_hour": "18205.4793991074"
            },
            "miss_distance": {
                "astronomical": "0.051220671",
                "lunar": "19.924841019",
                "kilometers": "7662503.28157077",
                "miles": "4761258.756665826"
            },
            "orbiting_body": "Earth"
        }
    ],
    "orbital_data": {
        "orbit_id": "1",
        "orbit_determination_date": "2020-09-21 04:12:05",
        "first_observation_date": "2020-08-28",
        "last_observation_date": "2020-08-29",
        "data_arc_in_days": 1,
        "observations_used": 10,
        "orbit_uncertainty": "9",
        "minimum_orbit_intersection": ".00604987",
        "jupiter_tisserand_invariant": "5.036",
        "epoch_osculation": "2459090.5",
        "eccentricity": ".235164908194646",
        "semi_major_axis": "1.271580390579369",
        "inclination": "10.69525842422563",
        "ascending_node_longitude": "162.5870394788491",
        "orbital_period": "523.7380895978614",
        "perihelion_distance": ".9725493047666598",
        "perihelion_argument": "218.8011723435287",
        "aphelion_distance": "1.570611476392079",
        "perihelion_time": "2459129.434097493886",
        "mean_anomaly": "333.2380069806246",
        "mean_motion": ".6873664664649779",
        "equinox": "J2000",
        "orbit_class": {
            "orbit_class_type": "APO",
            "orbit_class_description": "Near-Earth asteroid orbits which cross the Earth’s orbit similar to that of 1862 Apollo",
            "orbit_class_range": "a (semi-major axis) > 1.0 AU; q (perihelion) < 1.017 AU"
        }
    },
    "is_sentry_object": false
}